[
    {
        "OBJECT_NAME": "SUCHAI",
        "OBJECT_ID": "2017-036Z",
        "EPOCH": "2023-01-01T20:55:00.427008",
        "MEAN_MOTION": 15.37534533,
        "ECCENTRICITY": 0.0007401,
        "INCLINATION": 97.1751,
        "RA_OF_ASC_NODE": 45.0491,
        "ARG_OF_PERICENTER": 342.1109,
        "MEAN_ANOMALY": 17.9875,
        "EPHEMERIS_TYPE": 0,
        "CLASSIFICATION_TYPE": "U",
        "NORAD_CAT_ID": 42788,
        "ELEMENT_SET_NO": 999,
        "REV_AT_EPOCH": 30759,
        "BSTAR": 0.00073261,
        "MEAN_MOTION_DOT": 0.00026981,
        "MEAN_MOTION_DDOT": 0
    },
    {
        "OBJECT_NAME": "SKCUBE",
        "OBJECT_ID": "2017-036AA",
        "EPOCH": "2023-01-02T07:56:15.885024",
        "MEAN_MOTION": 15.3600746,
        "ECCENTRICITY": 0.0007637,
        "INCLINATION": 97.175,
        "RA_OF_ASC_NODE": 44.6516,
        "ARG_OF_PERICENTER": 341.6921,
        "MEAN_ANOMALY": 18.4047,
        "EPHEMERIS_TYPE": 0,
        "CLASSIFICATION_TYPE": "U",
        "NORAD_CAT_ID": 42789,
        "ELEMENT_SET_NO": 999,
        "REV_AT_EPOCH": 30753,
        "BSTAR": 0.00072989,
        "MEAN_MOTION_DOT": 0.00025589,
        "MEAN_MOTION_DDOT": 0
    },
    {
        "OBJECT_NAME": "VZLUSAT-1",
        "OBJECT_ID": "2017-036AB",
        "EPOCH": "2023-01-02T02:42:11.124000",
        "MEAN_MOTION": 15.43914547,
        "ECCENTRICITY": 0.0005686,
        "INCLINATION": 97.1758,
        "RA_OF_ASC_NODE": 48.9894,
        "ARG_OF_PERICENTER": 330.0411,
        "MEAN_ANOMALY": 30.0511,
        "EPHEMERIS_TYPE": 0,
        "CLASSIFICATION_TYPE": "U",
        "NORAD_CAT_ID": 42790,
        "ELEMENT_SET_NO": 999,
        "REV_AT_EPOCH": 30777,
        "BSTAR": 0.0010586,
        "MEAN_MOTION_DOT": 0.00048281,
        "MEAN_MOTION_DDOT": 0
    },
    {
        "OBJECT_NAME": "ROBUSTA 1B",
        "OBJECT_ID": "2017-036AD",
        "EPOCH": "2023-01-02T09:17:49.910208",
        "MEAN_MOTION": 15.37064813,
        "ECCENTRICITY": 0.0007026,
        "INCLINATION": 97.1745,
        "RA_OF_ASC_NODE": 45.478,
        "ARG_OF_PERICENTER": 341.5273,
        "MEAN_ANOMALY": 18.5715,
        "EPHEMERIS_TYPE": 0,
        "CLASSIFICATION_TYPE": "U",
        "NORAD_CAT_ID": 42792,
        "ELEMENT_SET_NO": 999,
        "REV_AT_EPOCH": 30760,
        "BSTAR": 0.00076964,
        "MEAN_MOTION_DOT": 0.00027924,
        "MEAN_MOTION_DDOT": 0
    },
    {
        "OBJECT_NAME": "CICERO 6",
        "OBJECT_ID": "2017-036AE",
        "EPOCH": "2023-01-02T13:23:01.031712",
        "MEAN_MOTION": 15.31078393,
        "ECCENTRICITY": 0.0007917,
        "INCLINATION": 97.1746,
        "RA_OF_ASC_NODE": 42.132,
        "ARG_OF_PERICENTER": 353.1575,
        "MEAN_ANOMALY": 6.9557,
        "EPHEMERIS_TYPE": 0,
        "CLASSIFICATION_TYPE": "U",
        "NORAD_CAT_ID": 42793,
        "ELEMENT_SET_NO": 999,
        "REV_AT_EPOCH": 30749,
        "BSTAR": 0.00039384,
        "MEAN_MOTION_DOT": 0.00011767,
        "MEAN_MOTION_DDOT": 0
    },
    {
        "OBJECT_NAME": "CORVUS BC2",
        "OBJECT_ID": "2017-042X",
        "EPOCH": "2023-01-02T09:06:43.423200",
        "MEAN_MOTION": 14.93529486,
        "ECCENTRICITY": 0.0010538,
        "INCLINATION": 97.3978,
        "RA_OF_ASC_NODE": 213.2339,
        "ARG_OF_PERICENTER": 55.0523,
        "MEAN_ANOMALY": 305.1686,
        "EPHEMERIS_TYPE": 0,
        "CLASSIFICATION_TYPE": "U",
        "NORAD_CAT_ID": 42846,
        "ELEMENT_SET_NO": 999,
        "REV_AT_EPOCH": 29796,
        "BSTAR": 0.00023234,
        "MEAN_MOTION_DOT": 2.397e-5,
        "MEAN_MOTION_DDOT": 0
    },
    {
        "OBJECT_NAME": "CORVUS BC1",
        "OBJECT_ID": "2017-042Y",
        "EPOCH": "2023-01-02T15:34:31.897056",
        "MEAN_MOTION": 14.93609998,
        "ECCENTRICITY": 0.0010226,
        "INCLINATION": 97.3979,
        "RA_OF_ASC_NODE": 213.8231,
        "ARG_OF_PERICENTER": 53.5775,
        "MEAN_ANOMALY": 306.6387,
        "EPHEMERIS_TYPE": 0,
        "CLASSIFICATION_TYPE": "U",
        "NORAD_CAT_ID": 42847,
        "ELEMENT_SET_NO": 999,
        "REV_AT_EPOCH": 29801,
        "BSTAR": 0.00022823,
        "MEAN_MOTION_DOT": 2.359e-5,
        "MEAN_MOTION_DDOT": 0
    },
    {
        "OBJECT_NAME": "MIRATA",
        "OBJECT_ID": "2017-073C",
        "EPOCH": "2023-01-02T11:39:20.201472",
        "MEAN_MOTION": 14.87304015,
        "ECCENTRICITY": 0.0226657,
        "INCLINATION": 97.6539,
        "RA_OF_ASC_NODE": 255.5262,
        "ARG_OF_PERICENTER": 245.1414,
        "MEAN_ANOMALY": 112.6085,
        "EPHEMERIS_TYPE": 0,
        "CLASSIFICATION_TYPE": "U",
        "NORAD_CAT_ID": 43015,
        "ELEMENT_SET_NO": 999,
        "REV_AT_EPOCH": 27681,
        "BSTAR": 0.00081001,
        "MEAN_MOTION_DOT": 0.00011709,
        "MEAN_MOTION_DDOT": 0
    },
    {
        "OBJECT_NAME": "MAKERSAT 0",
        "OBJECT_ID": "2017-073D",
        "EPOCH": "2023-01-02T11:04:46.470144",
        "MEAN_MOTION": 14.84603101,
        "ECCENTRICITY": 0.0236545,
        "INCLINATION": 97.6544,
        "RA_OF_ASC_NODE": 254.4945,
        "ARG_OF_PERICENTER": 251.642,
        "MEAN_ANOMALY": 105.894,
        "EPHEMERIS_TYPE": 0,
        "CLASSIFICATION_TYPE": "U",
        "NORAD_CAT_ID": 43016,
        "ELEMENT_SET_NO": 999,
        "REV_AT_EPOCH": 27669,
        "BSTAR": 0.00058974,
        "MEAN_MOTION_DOT": 8.184e-5,
        "MEAN_MOTION_DDOT": 0
    },
    {
        "OBJECT_NAME": "CORVUS BC3",
        "OBJECT_ID": "2018-004H",
        "EPOCH": "2023-01-02T11:17:41.263872",
        "MEAN_MOTION": 15.30938751,
        "ECCENTRICITY": 0.0009122,
        "INCLINATION": 97.344,
        "RA_OF_ASC_NODE": 77.8031,
        "ARG_OF_PERICENTER": 26.3531,
        "MEAN_ANOMALY": 333.8172,
        "EPHEMERIS_TYPE": 0,
        "CLASSIFICATION_TYPE": "U",
        "NORAD_CAT_ID": 43118,
        "ELEMENT_SET_NO": 999,
        "REV_AT_EPOCH": 27662,
        "BSTAR": 0.00045176,
        "MEAN_MOTION_DOT": 0.00013454,
        "MEAN_MOTION_DDOT": 0
    },
    {
        "OBJECT_NAME": "MICROMAS-2A",
        "OBJECT_ID": "2018-004W",
        "EPOCH": "2023-01-02T11:27:11.731104",
        "MEAN_MOTION": 15.5065085,
        "ECCENTRICITY": 0.0005108,
        "INCLINATION": 97.3574,
        "RA_OF_ASC_NODE": 88.6469,
        "ARG_OF_PERICENTER": 355.0227,
        "MEAN_ANOMALY": 5.0973,
        "EPHEMERIS_TYPE": 0,
        "CLASSIFICATION_TYPE": "U",
        "NORAD_CAT_ID": 43131,
        "ELEMENT_SET_NO": 999,
        "REV_AT_EPOCH": 27724,
        "BSTAR": 0.0012878,
        "MEAN_MOTION_DOT": 0.00074369,
        "MEAN_MOTION_DDOT": 0
    },
    {
        "OBJECT_NAME": "CICERO 7",
        "OBJECT_ID": "2018-004AJ",
        "EPOCH": "2023-01-02T10:59:44.412288",
        "MEAN_MOTION": 15.4055903,
        "ECCENTRICITY": 0.0005296,
        "INCLINATION": 97.3588,
        "RA_OF_ASC_NODE": 86.6048,
        "ARG_OF_PERICENTER": 21.1889,
        "MEAN_ANOMALY": 338.9576,
        "EPHEMERIS_TYPE": 0,
        "CLASSIFICATION_TYPE": "U",
        "NORAD_CAT_ID": 43143,
        "ELEMENT_SET_NO": 999,
        "REV_AT_EPOCH": 27713,
        "BSTAR": 0.00055014,
        "MEAN_MOTION_DOT": 0.00022319,
        "MEAN_MOTION_DDOT": 0
    }
]