SUCHAI                  
1 42788U 17036Z   23001.87153272  .00026981  00000+0  73261-3 0  9994
2 42788  97.1751  45.0491 0007401 342.1109  17.9875 15.37534533307596
SKCUBE                  
1 42789U 17036AA  23002.33073941  .00025589  00000+0  72989-3 0  9990
2 42789  97.1750  44.6516 0007637 341.6921  18.4047 15.36007460307530
VZLUSAT-1               
1 42790U 17036AB  23002.11262875  .00048281  00000+0  10586-2 0  9992
2 42790  97.1758  48.9894 0005686 330.0411  30.0511 15.43914547307777
ROBUSTA 1B              
1 42792U 17036AD  23002.38738322  .00027924  00000+0  76964-3 0  9992
2 42792  97.1745  45.4780 0007026 341.5273  18.5715 15.37064813307608
CICERO 6                
1 42793U 17036AE  23002.55765083  .00011767  00000+0  39384-3 0  9999
2 42793  97.1746  42.1320 0007917 353.1575   6.9557 15.31078393307491
CORVUS BC2              
1 42846U 17042X   23002.37966925  .00002397  00000+0  23234-3 0  9999
2 42846  97.3978 213.2339 0010538  55.0523 305.1686 14.93529486297962
CORVUS BC1              
1 42847U 17042Y   23002.64898029  .00002359  00000+0  22823-3 0  9990
2 42847  97.3979 213.8231 0010226  53.5775 306.6387 14.93609998298015
MIRATA                  
1 43015U 17073C   23002.48565048  .00011709  00000+0  81001-3 0  9998
2 43015  97.6539 255.5262 0226657 245.1414 112.6085 14.87304015276810
MAKERSAT 0              
1 43016U 17073D   23002.46164896  .00008184  00000+0  58974-3 0  9999
2 43016  97.6544 254.4945 0236545 251.6420 105.8940 14.84603101276694
CORVUS BC3              
1 43118U 18004H   23002.47061648  .00013454  00000+0  45176-3 0  9995
2 43118  97.3440  77.8031 0009122  26.3531 333.8172 15.30938751276628
MICROMAS-2A             
1 43131U 18004W   23002.47721911  .00074369  00000+0  12878-2 0  9990
2 43131  97.3574  88.6469 0005108 355.0227   5.0973 15.50650850277249
CICERO 7                
1 43143U 18004AJ  23002.45815292  .00022319  00000+0  55014-3 0  9995
2 43143  97.3588  86.6048 0005296  21.1889 338.9576 15.40559030277133
